start=new Date('2022-11-21T00:00:00.000Z').valueOf();
sats=[{"TLE_LINE2":"2 44924  53.0550 356.3837 0001629  62.8824 297.2331 15.06406683158219","ELEMENT_SET_NO":"999","BSTAR":"0.00021013000000","NORAD_CAT_ID":"44924","LAUNCH_DATE":"2020-01-07","REF_FRAME":"TEME","APOAPSIS":"548.321","INCLINATION":"53.0550","GP_ID":"218357309","TLE_LINE1":"1 44924U 20001L   22324.62395156  .00002850  00000-0  21013-3 0  9991","CLASSIFICATION_TYPE":"U","PERIAPSIS":"546.065","MEAN_ANOMALY":"297.2331","RCS_SIZE":"LARGE","DECAY_DATE":null,"MEAN_MOTION":"15.06406683","SITE":"AFETR","CENTER_NAME":"EARTH","PERIOD":"95.592","OBJECT_NAME":"STARLINK-1111","SEMIMAJOR_AXIS":"6925.328","MEAN_MOTION_DDOT":"0.0000000000000","MEAN_MOTION_DOT":"0.00002850","EPOCH":"2022-11-20T14:58:29.414784","MEAN_ELEMENT_THEORY":"SGP4","OBJECT_TYPE":"PAYLOAD","RA_OF_ASC_NODE":"356.3837","EPHEMERIS_TYPE":"0","ARG_OF_PERICENTER":"62.8824","OBJECT_ID":"2020-001L","FILE":"3665715","COUNTRY_CODE":"US","ECCENTRICITY":"0.00016290","REV_AT_EPOCH":"15821","TIME_SYSTEM":"UTC"},{"REV_AT_EPOCH":"15817","ECCENTRICITY":"0.00013640","TIME_SYSTEM":"UTC","FILE":"3664760","COUNTRY_CODE":"US","ARG_OF_PERICENTER":"69.8844","EPHEMERIS_TYPE":"0","OBJECT_ID":"2020-001M","RA_OF_ASC_NODE":"357.4924","OBJECT_TYPE":"PAYLOAD","MEAN_ELEMENT_THEORY":"SGP4","PERIOD":"95.592","SEMIMAJOR_AXIS":"6925.340","OBJECT_NAME":"STARLINK-1112","EPOCH":"2022-11-20T08:57:33.711840","MEAN_MOTION_DDOT":"0.0000000000000","MEAN_MOTION_DOT":"0.00002496","CENTER_NAME":"EARTH","DECAY_DATE":null,"MEAN_MOTION":"15.06402687","SITE":"AFETR","MEAN_ANOMALY":"290.2292","RCS_SIZE":"LARGE","PERIAPSIS":"546.261","GP_ID":"218287281","TLE_LINE1":"1 44925U 20001M   22324.37330685  .00002496  00000-0  18641-3 0  9999","CLASSIFICATION_TYPE":"U","INCLINATION":"53.0558","REF_FRAME":"TEME","APOAPSIS":"548.150","NORAD_CAT_ID":"44925","LAUNCH_DATE":"2020-01-07","TLE_LINE2":"2 44925  53.0558 357.4924 0001364  69.8844 290.2292 15.06402687158176","ELEMENT_SET_NO":"999","BSTAR":"0.00018641000000"},{"INCLINATION":"53.0024","REF_FRAME":"TEME","APOAPSIS":"550.697","NORAD_CAT_ID":"44926","LAUNCH_DATE":"2020-01-07","BSTAR":"0.00002903800000","TLE_LINE2":"2 44926  53.0024 355.6084 0001417  66.7825 293.3312 15.05584253158936","ELEMENT_SET_NO":"999","DECAY_DATE":null,"SITE":"AFETR","MEAN_MOTION":"15.05584253","RCS_SIZE":"LARGE","MEAN_ANOMALY":"293.3312","PERIAPSIS":"548.733","GP_ID":"218358309","TLE_LINE1":"1 44926U 20001N   22324.79773168  .00000144  00000-0  29038-4 0  9994","CLASSIFICATION_TYPE":"U","OBJECT_TYPE":"PAYLOAD","MEAN_ELEMENT_THEORY":"SGP4","PERIOD":"95.644","MEAN_MOTION_DDOT":"0.0000000000000","EPOCH":"2022-11-20T19:08:44.017152","MEAN_MOTION_DOT":"0.00000144","OBJECT_NAME":"STARLINK-1113","SEMIMAJOR_AXIS":"6927.850","CENTER_NAME":"EARTH","ECCENTRICITY":"0.00014170","REV_AT_EPOCH":"15893","TIME_SYSTEM":"UTC","FILE":"3665715","COUNTRY_CODE":"US","EPHEMERIS_TYPE":"0","ARG_OF_PERICENTER":"66.7825","OBJECT_ID":"2020-001N","RA_OF_ASC_NODE":"355.6084"},{"RCS_SIZE":"LARGE","MEAN_ANOMALY":"294.4525","DECAY_DATE":null,"SITE":"AFETR","MEAN_MOTION":"15.06393050","GP_ID":"218357059","CLASSIFICATION_TYPE":"U","TLE_LINE1":"1 44927U 20001P   22324.58341349  .00001143  00000-0  95633-4 0  9998","PERIAPSIS":"546.193","REF_FRAME":"TEME","APOAPSIS":"548.276","INCLINATION":"53.0565","BSTAR":"0.00009563300000","TLE_LINE2":"2 44927  53.0565 356.5446 0001504  65.6621 294.4525 15.06393050158211","ELEMENT_SET_NO":"999","NORAD_CAT_ID":"44927","LAUNCH_DATE":"2020-01-07","FILE":"3665715","COUNTRY_CODE":"US","REV_AT_EPOCH":"15821","ECCENTRICITY":"0.00015040","TIME_SYSTEM":"UTC","RA_OF_ASC_NODE":"356.5446","ARG_OF_PERICENTER":"65.6621","EPHEMERIS_TYPE":"0","OBJECT_ID":"2020-001P","MEAN_ELEMENT_THEORY":"SGP4","OBJECT_TYPE":"PAYLOAD","CENTER_NAME":"EARTH","PERIOD":"95.593","MEAN_MOTION_DDOT":"0.0000000000000","MEAN_MOTION_DOT":"0.00001143","EPOCH":"2022-11-20T14:00:06.925536","OBJECT_NAME":"STARLINK-1114","SEMIMAJOR_AXIS":"6925.370"},{"OBJECT_ID":"2020-001Q","ARG_OF_PERICENTER":"51.6178","EPHEMERIS_TYPE":"0","RA_OF_ASC_NODE":"357.4639","TIME_SYSTEM":"UTC","ECCENTRICITY":"0.00018150","REV_AT_EPOCH":"15818","COUNTRY_CODE":"US","FILE":"3664760","EPOCH":"2022-11-20T09:08:10.827168","MEAN_MOTION_DDOT":"0.0000000000000","MEAN_MOTION_DOT":"-0.00000313","SEMIMAJOR_AXIS":"6925.352","OBJECT_NAME":"STARLINK-1119","PERIOD":"95.592","CENTER_NAME":"EARTH","OBJECT_TYPE":"PAYLOAD","MEAN_ELEMENT_THEORY":"SGP4","PERIAPSIS":"545.960","TLE_LINE1":"1 44928U 20001Q   22324.38068087 -.00000313  00000-0 -21381-5 0  9992","CLASSIFICATION_TYPE":"U","GP_ID":"218287531","SITE":"AFETR","MEAN_MOTION":"15.06399018","DECAY_DATE":null,"RCS_SIZE":"LARGE","MEAN_ANOMALY":"308.4974","LAUNCH_DATE":"2020-01-07","NORAD_CAT_ID":"44928","BSTAR":"-0.00000213810000","TLE_LINE2":"2 44928  53.0575 357.4639 0001815  51.6178 308.4974 15.06399018158184","ELEMENT_SET_NO":"999","INCLINATION":"53.0575","APOAPSIS":"548.474","REF_FRAME":"TEME"},{"APOAPSIS":"548.429","REF_FRAME":"TEME","INCLINATION":"53.0572","BSTAR":"-0.00001658800000","TLE_LINE2":"2 44929  53.0572 355.4441 0001776  65.2122 294.9051 15.06404599158240","ELEMENT_SET_NO":"999","LAUNCH_DATE":"2020-01-07","NORAD_CAT_ID":"44929","RCS_SIZE":"LARGE","MEAN_ANOMALY":"294.9051","SITE":"AFETR","MEAN_MOTION":"15.06404599","DECAY_DATE":null,"TLE_LINE1":"1 44929U 20001R   22324.83037219 -.00000529  00000-0 -16588-4 0  9997","CLASSIFICATION_TYPE":"U","GP_ID":"218358059","PERIAPSIS":"545.970","MEAN_ELEMENT_THEORY":"SGP4","OBJECT_TYPE":"PAYLOAD","CENTER_NAME":"EARTH","MEAN_MOTION_DOT":"-0.00000529","MEAN_MOTION_DDOT":"0.0000000000000","EPOCH":"2022-11-20T19:55:44.157216","SEMIMAJOR_AXIS":"6925.334","OBJECT_NAME":"STARLINK-1121","PERIOD":"95.592","COUNTRY_CODE":"US","FILE":"3665715","TIME_SYSTEM":"UTC","ECCENTRICITY":"0.00017760","REV_AT_EPOCH":"15824","RA_OF_ASC_NODE":"355.4441","OBJECT_ID":"2020-001R","ARG_OF_PERICENTER":"65.2122","EPHEMERIS_TYPE":"0"},{"FILE":"3664760","COUNTRY_CODE":"US","ECCENTRICITY":"0.00016910","REV_AT_EPOCH":"15818","TIME_SYSTEM":"UTC","RA_OF_ASC_NODE":"357.3937","ARG_OF_PERICENTER":"60.7228","EPHEMERIS_TYPE":"0","OBJECT_ID":"2020-001S","MEAN_ELEMENT_THEORY":"SGP4","OBJECT_TYPE":"PAYLOAD","CENTER_NAME":"EARTH","PERIOD":"95.592","MEAN_MOTION_DOT":"0.00001775","MEAN_MOTION_DDOT":"0.0000000000000","EPOCH":"2022-11-20T09:34:43.330368","OBJECT_NAME":"STARLINK-1123","SEMIMAJOR_AXIS":"6925.350","RCS_SIZE":"LARGE","MEAN_ANOMALY":"299.3930","DECAY_DATE":null,"SITE":"AFETR","MEAN_MOTION":"15.06399441","GP_ID":"218288032","TLE_LINE1":"1 44930U 20001S   22324.39911262  .00001775  00000-0  13802-3 0  9996","CLASSIFICATION_TYPE":"U","PERIAPSIS":"546.044","REF_FRAME":"TEME","APOAPSIS":"548.386","INCLINATION":"53.0556","BSTAR":"0.00013802000000","TLE_LINE2":"2 44930  53.0556 357.3937 0001691  60.7228 299.3930 15.06399441158185","ELEMENT_SET_NO":"999","NORAD_CAT_ID":"44930","LAUNCH_DATE":"2020-01-07"},{"TLE_LINE1":"1 44931U 20001T   22324.35044996  .00000358  00000-0  38492-4 0  9993","CLASSIFICATION_TYPE":"U","GP_ID":"218288782","PERIAPSIS":"531.551","RCS_SIZE":"LARGE","MEAN_ANOMALY":"298.8902","SITE":"AFETR","MEAN_MOTION":"15.11144816","DECAY_DATE":null,"BSTAR":"0.00003849200000","TLE_LINE2":"2 44931  53.0552 347.5621 0001676  61.2257 298.8902 15.11144816159065","ELEMENT_SET_NO":"999","LAUNCH_DATE":"2020-01-07","NORAD_CAT_ID":"44931","APOAPSIS":"533.868","REF_FRAME":"TEME","INCLINATION":"53.0552","RA_OF_ASC_NODE":"347.5621","OBJECT_ID":"2020-001T","EPHEMERIS_TYPE":"0","ARG_OF_PERICENTER":"61.2257","COUNTRY_CODE":"US","FILE":"3664760","TIME_SYSTEM":"UTC","REV_AT_EPOCH":"15906","ECCENTRICITY":"0.00016760","CENTER_NAME":"EARTH","MEAN_MOTION_DDOT":"0.0000000000000","EPOCH":"2022-11-20T08:24:38.876544","MEAN_MOTION_DOT":"0.00000358","OBJECT_NAME":"STARLINK-1128","SEMIMAJOR_AXIS":"6910.844","PERIOD":"95.292","MEAN_ELEMENT_THEORY":"SGP4","OBJECT_TYPE":"PAYLOAD"},{"DECAY_DATE":null,"SITE":"AFETR","MEAN_MOTION":"15.06396191","RCS_SIZE":"LARGE","MEAN_ANOMALY":"296.7754","PERIAPSIS":"546.178","GP_ID":"218357310","TLE_LINE1":"1 44932U 20001U   22324.58709528  .00001840  00000-0  14237-3 0  9995","CLASSIFICATION_TYPE":"U","INCLINATION":"53.0563","REF_FRAME":"TEME","APOAPSIS":"548.272","NORAD_CAT_ID":"44932","LAUNCH_DATE":"2020-01-07","BSTAR":"0.00014237000000","ELEMENT_SET_NO":"999","TLE_LINE2":"2 44932  53.0563 356.5382 0001512  63.3390 296.7754 15.06396191159445","REV_AT_EPOCH":"15944","ECCENTRICITY":"0.00015120","TIME_SYSTEM":"UTC","FILE":"3665715","COUNTRY_CODE":"US","ARG_OF_PERICENTER":"63.3390","EPHEMERIS_TYPE":"0","OBJECT_ID":"2020-001U","RA_OF_ASC_NODE":"356.5382","OBJECT_TYPE":"PAYLOAD","MEAN_ELEMENT_THEORY":"SGP4","PERIOD":"95.592","EPOCH":"2022-11-20T14:05:25.032192","MEAN_MOTION_DDOT":"0.0000000000000","MEAN_MOTION_DOT":"0.00001840","OBJECT_NAME":"STARLINK-1130","SEMIMAJOR_AXIS":"6925.360","CENTER_NAME":"EARTH"},{"TLE_LINE1":"1 44933U 20001V   22324.81193311  .00000502  00000-0  52573-4 0  9999","CLASSIFICATION_TYPE":"U","GP_ID":"218358559","PERIAPSIS":"545.904","MEAN_ANOMALY":"309.4455","RCS_SIZE":"LARGE","MEAN_MOTION":"15.06403953","SITE":"AFETR","DECAY_DATE":null,"TLE_LINE2":"2 44933  53.0551 355.5329 0001873  50.6699 309.4455 15.06403953159539","ELEMENT_SET_NO":"999","BSTAR":"0.00005257300000","LAUNCH_DATE":"2020-01-07","NORAD_CAT_ID":"44933","APOAPSIS":"548.499","REF_FRAME":"TEME","INCLINATION":"53.0551","RA_OF_ASC_NODE":"355.5329","OBJECT_ID":"2020-001V","EPHEMERIS_TYPE":"0","ARG_OF_PERICENTER":"50.6699","COUNTRY_CODE":"US","FILE":"3665715","TIME_SYSTEM":"UTC","ECCENTRICITY":"0.00018730","REV_AT_EPOCH":"15953","CENTER_NAME":"EARTH","OBJECT_NAME":"STARLINK-1144","SEMIMAJOR_AXIS":"6925.336","EPOCH":"2022-11-20T19:29:11.020704","MEAN_MOTION_DDOT":"0.0000000000000","MEAN_MOTION_DOT":"0.00000502","PERIOD":"95.592","MEAN_ELEMENT_THEORY":"SGP4","OBJECT_TYPE":"PAYLOAD"}];
